{
  "type": "FeatureCollection",
  "features": [
    {
      "type": "Feature",
      "properties": {
        "norad_id": 34301,
        "name": "COSMOS 2251 DEB",
        "group": "cosmos-2251-debris",
        "lat": -34.18378933254288,
        "lon": -31.133359715413572,
        "alt_km": 611.9363987788774,
        "timestamp": "2025-12-27T08:36:18.778584+00:00",
        "meta_object_name": "COSMOS 2251 DEB",
        "meta_object_id": "1993-036MX",
        "meta_epoch": "2025-12-26T12:33:41.976000",
        "meta_mean_motion": 14.85255875,
        "meta_eccentricity": 0.0009678,
        "meta_inclination": 74.0061,
        "meta_ra_of_asc_node": 139.2942,
        "meta_arg_of_pericenter": 203.9823,
        "meta_mean_anomaly": 227.9901,
        "meta_ephemeris_type": 0,
        "meta_classification_type": "U",
        "meta_norad_cat_id": 34301,
        "meta_element_set_no": 999,
        "meta_rev_at_epoch": 88605,
        "meta_bstar": 0.0032937,
        "meta_mean_motion_dot": 0.00028381,
        "meta_mean_motion_ddot": 0,
        "tle_line1": "1 34301U 93036MX  25360.52340250  .00028381  00000+0  32937-2 0  9996",
        "tle_line2": "2 34301  74.0061 139.2942 0009678 203.9823 227.9901 14.85255875886055"
      },
      "geometry": {
        "type": "Point",
        "coordinates": [
          -31.133359715413572,
          -34.18378933254288
        ]
      }
    },
    {
      "type": "Feature",
      "properties": {
        "norad_id": 34302,
        "name": "COSMOS 2251 DEB",
        "group": "cosmos-2251-debris",
        "lat": 64.76695383754144,
        "lon": 133.82109036651704,
        "alt_km": 783.7201153606902,
        "timestamp": "2025-12-27T08:36:18.778594+00:00",
        "meta_object_name": "COSMOS 2251 DEB",
        "meta_object_id": "1993-036MY",
        "meta_epoch": "2025-12-27T01:53:47.194080",
        "meta_mean_motion": 14.39386292,
        "meta_eccentricity": 0.0079596,
        "meta_inclination": 74.1784,
        "meta_ra_of_asc_node": 97.3407,
        "meta_arg_of_pericenter": 308.6325,
        "meta_mean_anomaly": 112.8331,
        "meta_ephemeris_type": 0,
        "meta_classification_type": "U",
        "meta_norad_cat_id": 34302,
        "meta_element_set_no": 999,
        "meta_rev_at_epoch": 87927,
        "meta_bstar": 0.00071056,
        "meta_mean_motion_dot": 2.268e-05,
        "meta_mean_motion_ddot": 0,
        "tle_line1": "1 34302U 93036MY  25361.07901845  .00002268  00000+0  71056-3 0  9993",
        "tle_line2": "2 34302  74.1784  97.3407 0079596 308.6325 112.8331 14.39386292879277"
      },
      "geometry": {
        "type": "Point",
        "coordinates": [
          133.82109036651704,
          64.76695383754144
        ]
      }
    },
    {
      "type": "Feature",
      "properties": {
        "norad_id": 34303,
        "name": "COSMOS 2251 DEB",
        "group": "cosmos-2251-debris",
        "lat": -29.590901495335412,
        "lon": -109.04770332585142,
        "alt_km": 675.651136906472,
        "timestamp": "2025-12-27T08:36:18.778605+00:00",
        "meta_object_name": "COSMOS 2251 DEB",
        "meta_object_id": "1993-036MZ",
        "meta_epoch": "2025-12-27T04:28:50.937024",
        "meta_mean_motion": 14.54652932,
        "meta_eccentricity": 0.0135699,
        "meta_inclination": 74.0046,
        "meta_ra_of_asc_node": 260.6528,
        "meta_arg_of_pericenter": 35.4368,
        "meta_mean_anomaly": 115.6006,
        "meta_ephemeris_type": 0,
        "meta_classification_type": "U",
        "meta_norad_cat_id": 34303,
        "meta_element_set_no": 999,
        "meta_rev_at_epoch": 88172,
        "meta_bstar": 0.0018325,
        "meta_mean_motion_dot": 8.842e-05,
        "meta_mean_motion_ddot": 0,
        "tle_line1": "1 34303U 93036MZ  25361.18670066  .00008842  00000+0  18325-2 0  9997",
        "tle_line2": "2 34303  74.0046 260.6528 0135699  35.4368 115.6006 14.54652932881723"
      },
      "geometry": {
        "type": "Point",
        "coordinates": [
          -109.04770332585142,
          -29.590901495335412
        ]
      }
    },
    {
      "type": "Feature",
      "properties": {
        "norad_id": 34304,
        "name": "COSMOS 2251 DEB",
        "group": "cosmos-2251-debris",
        "lat": -65.02040561423898,
        "lon": 57.65077430933665,
        "alt_km": 723.6896220412191,
        "timestamp": "2025-12-27T08:36:18.778615+00:00",
        "meta_object_name": "COSMOS 2251 DEB",
        "meta_object_id": "1993-036NA",
        "meta_epoch": "2025-12-26T16:48:12.002688",
        "meta_mean_motion": 14.37997771,
        "meta_eccentricity": 0.01289226,
        "meta_inclination": 74.0136,
        "meta_ra_of_asc_node": 96.8421,
        "meta_arg_of_pericenter": 231.8358,
        "meta_mean_anomaly": 249.2914,
        "meta_ephemeris_type": 0,
        "meta_classification_type": "U",
        "meta_norad_cat_id": 34304,
        "meta_element_set_no": 999,
        "meta_rev_at_epoch": 87497,
        "meta_bstar": 0.0017543982,
        "meta_mean_motion_dot": 5.819e-05,
        "meta_mean_motion_ddot": 0,
        "tle_line1": "1 34304U 93036NA  25360.70013892  .00005819  00000+0  17544-2 0  9996",
        "tle_line2": "2 34304  74.0136  96.8421 0128922 231.8358 249.2914 14.37997771874972"
      },
      "geometry": {
        "type": "Point",
        "coordinates": [
          57.65077430933665,
          -65.02040561423898
        ]
      }
    },
    {
      "type": "Feature",
      "properties": {
        "norad_id": 34307,
        "name": "COSMOS 2251 DEB",
        "group": "cosmos-2251-debris",
        "lat": 50.67759511095572,
        "lon": -49.91424710350212,
        "alt_km": 913.3763171787359,
        "timestamp": "2025-12-27T08:36:18.778626+00:00",
        "meta_object_name": "COSMOS 2251 DEB",
        "meta_object_id": "1993-036ND",
        "meta_epoch": "2025-12-27T01:20:29.988096",
        "meta_mean_motion": 13.54344474,
        "meta_eccentricity": 0.0391736,
        "meta_inclination": 74.0541,
        "meta_ra_of_asc_node": 290.144,
        "meta_arg_of_pericenter": 117.9235,
        "meta_mean_anomaly": 264.6298,
        "meta_ephemeris_type": 0,
        "meta_classification_type": "U",
        "meta_norad_cat_id": 34307,
        "meta_element_set_no": 999,
        "meta_rev_at_epoch": 83056,
        "meta_bstar": 0.00085204,
        "meta_mean_motion_dot": 9.29e-06,
        "meta_mean_motion_ddot": 0,
        "tle_line1": "1 34307U 93036ND  25361.05590264  .00000929  00000+0  85204-3 0  9997",
        "tle_line2": "2 34307  74.0541 290.1440 0391736 117.9235 264.6298 13.54344474830565"
      },
      "geometry": {
        "type": "Point",
        "coordinates": [
          -49.91424710350212,
          50.67759511095572
        ]
      }
    },
    {
      "type": "Feature",
      "properties": {
        "norad_id": 34313,
        "name": "COSMOS 2251 DEB",
        "group": "cosmos-2251-debris",
        "lat": -61.057121906386605,
        "lon": -116.61089537783613,
        "alt_km": 511.9416533886033,
        "timestamp": "2025-12-27T08:36:18.778636+00:00",
        "meta_object_name": "COSMOS 2251 DEB",
        "meta_object_id": "1993-036NK",
        "meta_epoch": "2025-12-27T04:09:34.667424",
        "meta_mean_motion": 15.21766557,
        "meta_eccentricity": 0.0012209,
        "meta_inclination": 73.9711,
        "meta_ra_of_asc_node": 275.1034,
        "meta_arg_of_pericenter": 59.5098,
        "meta_mean_anomaly": 300.7304,
        "meta_ephemeris_type": 0,
        "meta_classification_type": "U",
        "meta_norad_cat_id": 34313,
        "meta_element_set_no": 999,
        "meta_rev_at_epoch": 89284,
        "meta_bstar": 0.0053535,
        "meta_mean_motion_dot": 0.0012372,
        "meta_mean_motion_ddot": 0,
        "tle_line1": "1 34313U 93036NK  25361.17331791  .00123720  00000+0  53535-2 0  9991",
        "tle_line2": "2 34313  73.9711 275.1034 0012209  59.5098 300.7304 15.21766557892849"
      },
      "geometry": {
        "type": "Point",
        "coordinates": [
          -116.61089537783613,
          -61.057121906386605
        ]
      }
    },
    {
      "type": "Feature",
      "properties": {
        "norad_id": 34314,
        "name": "COSMOS 2251 DEB",
        "group": "cosmos-2251-debris",
        "lat": -52.99528563882776,
        "lon": -100.07200440201224,
        "alt_km": 827.6631312117534,
        "timestamp": "2025-12-27T08:36:18.778646+00:00",
        "meta_object_name": "COSMOS 2251 DEB",
        "meta_object_id": "1993-036NL",
        "meta_epoch": "2025-12-26T23:16:42.517056",
        "meta_mean_motion": 14.17461023,
        "meta_eccentricity": 0.0103613,
        "meta_inclination": 74.0062,
        "meta_ra_of_asc_node": 282.9887,
        "meta_arg_of_pericenter": 25.3139,
        "meta_mean_anomaly": 97.4837,
        "meta_ephemeris_type": 0,
        "meta_classification_type": "U",
        "meta_norad_cat_id": 34314,
        "meta_element_set_no": 999,
        "meta_rev_at_epoch": 86859,
        "meta_bstar": 0.00064473,
        "meta_mean_motion_dot": 1.353e-05,
        "meta_mean_motion_ddot": 0,
        "tle_line1": "1 34314U 93036NL  25360.96993654  .00001353  00000+0  64473-3 0  9991",
        "tle_line2": "2 34314  74.0062 282.9887 0103613  25.3139  97.4837 14.17461023868590"
      },
      "geometry": {
        "type": "Point",
        "coordinates": [
          -100.07200440201224,
          -52.99528563882776
        ]
      }
    }
  ]
}